start=new Date('2022-04-28T00:00:00.000Z').valueOf();
sats=[{"TIME_SYSTEM":"UTC","OBJECT_ID":"2021-024D","EPOCH":"2022-04-27T14:00:01.999872","MEAN_ELEMENT_THEORY":"SGP4","LAUNCH_DATE":"2021-03-24","ELEMENT_SET_NO":"999","MEAN_ANOMALY":"260.4119","REF_FRAME":"TEME","OBJECT_TYPE":"PAYLOAD","ARG_OF_PERICENTER":"39.7916","MEAN_MOTION":"15.06415269","CLASSIFICATION_TYPE":"U","NORAD_CAT_ID":"47980","OBJECT_NAME":"STARLINK-2312","MEAN_MOTION_DDOT":"0.0000000000000","REV_AT_EPOCH":"6238","SITE":"AFETR","APOAPSIS":"548.715","CENTER_NAME":"EARTH","DECAY_DATE":null,"PERIOD":"95.591","RA_OF_ASC_NODE":"110.8187","COUNTRY_CODE":"US","INCLINATION":"53.0553","TLE_LINE2":"2 47980  53.0553 110.8187 0002235  39.7916 260.4119 15.06415269 62385","SEMIMAJOR_AXIS":"6925.302","PERIAPSIS":"545.619","FILE":"3418245","MEAN_MOTION_DOT":"-0.00024039","RCS_SIZE":"LARGE","ECCENTRICITY":"0.00022350","BSTAR":"-0.00159960000000","GP_ID":"202131343","EPHEMERIS_TYPE":"0","TLE_LINE1":"1 47980U 21024D   22117.58335648 -.00024039  00000-0 -15996-2 0  9994"},{"RA_OF_ASC_NODE":"196.1625","COUNTRY_CODE":"US","INCLINATION":"53.0536","TLE_LINE2":"2 47981  53.0536 196.1625 0001820  50.7325 309.3826 15.06393352 61719","SEMIMAJOR_AXIS":"6925.369","PERIAPSIS":"545.974","MEAN_MOTION_DOT":"0.00001584","FILE":"3418497","BSTAR":"0.00012527000000","ECCENTRICITY":"0.00018200","RCS_SIZE":"LARGE","GP_ID":"202157070","TLE_LINE1":"1 47981U 21024E   22117.50457597  .00001584  00000-0  12527-3 0  9991","EPHEMERIS_TYPE":"0","TIME_SYSTEM":"UTC","OBJECT_ID":"2021-024E","EPOCH":"2022-04-27T12:06:35.363808","MEAN_ELEMENT_THEORY":"SGP4","LAUNCH_DATE":"2021-03-24","ELEMENT_SET_NO":"999","MEAN_ANOMALY":"309.3826","OBJECT_TYPE":"PAYLOAD","REF_FRAME":"TEME","ARG_OF_PERICENTER":"50.7325","CLASSIFICATION_TYPE":"U","MEAN_MOTION":"15.06393352","NORAD_CAT_ID":"47981","OBJECT_NAME":"STARLINK-2303","REV_AT_EPOCH":"6171","MEAN_MOTION_DDOT":"0.0000000000000","SITE":"AFETR","DECAY_DATE":null,"CENTER_NAME":"EARTH","APOAPSIS":"548.494","PERIOD":"95.593"},{"PERIAPSIS":"545.618","FILE":"3418718","MEAN_MOTION_DOT":"0.00024022","SEMIMAJOR_AXIS":"6925.360","TLE_LINE1":"1 47982U 21024F   22117.91667824  .00024022  00000-0  16262-2 0  9994","EPHEMERIS_TYPE":"0","RCS_SIZE":"LARGE","ECCENTRICITY":"0.00023200","BSTAR":"0.00162620000000","GP_ID":"202166569","INCLINATION":"53.0523","RA_OF_ASC_NODE":"124.3043","COUNTRY_CODE":"US","TLE_LINE2":"2 47982  53.0523 124.3043 0002320  38.2553 142.8986 15.06396264 62222","OBJECT_NAME":"STARLINK-2317","NORAD_CAT_ID":"47982","APOAPSIS":"548.832","CENTER_NAME":"EARTH","DECAY_DATE":null,"PERIOD":"95.592","MEAN_MOTION_DDOT":"0.0000000000000","REV_AT_EPOCH":"6222","SITE":"AFETR","EPOCH":"2022-04-27T22:00:00.999936","TIME_SYSTEM":"UTC","OBJECT_ID":"2021-024F","ARG_OF_PERICENTER":"38.2553","CLASSIFICATION_TYPE":"U","MEAN_MOTION":"15.06396264","MEAN_ANOMALY":"142.8986","LAUNCH_DATE":"2021-03-24","ELEMENT_SET_NO":"999","MEAN_ELEMENT_THEORY":"SGP4","REF_FRAME":"TEME","OBJECT_TYPE":"PAYLOAD"},{"MEAN_ANOMALY":"176.8600","LAUNCH_DATE":"2021-03-24","ELEMENT_SET_NO":"999","MEAN_ELEMENT_THEORY":"SGP4","REF_FRAME":"TEME","OBJECT_TYPE":"PAYLOAD","ARG_OF_PERICENTER":"53.3102","CLASSIFICATION_TYPE":"U","MEAN_MOTION":"15.06388257","TIME_SYSTEM":"UTC","OBJECT_ID":"2021-024J","EPOCH":"2022-04-27T14:00:01.999872","MEAN_MOTION_DDOT":"0.0000000000000","REV_AT_EPOCH":"6210","SITE":"AFETR","CENTER_NAME":"EARTH","DECAY_DATE":null,"APOAPSIS":"548.581","PERIOD":"95.593","NORAD_CAT_ID":"47985","OBJECT_NAME":"STARLINK-2308","TLE_LINE2":"2 47985  53.0541 130.8216 0001923  53.3102 176.8600 15.06388257 62105","RA_OF_ASC_NODE":"130.8216","COUNTRY_CODE":"US","INCLINATION":"53.0541","BSTAR":"0.00006652700000","RCS_SIZE":"LARGE","ECCENTRICITY":"0.00019230","GP_ID":"202130856","TLE_LINE1":"1 47985U 21024J   22117.58335648  .00000709  00000-0  66527-4 0  9993","EPHEMERIS_TYPE":"0","SEMIMAJOR_AXIS":"6925.385","PERIAPSIS":"545.918","MEAN_MOTION_DOT":"0.00000709","FILE":"3418256"},{"SEMIMAJOR_AXIS":"6676.752","PERIAPSIS":"297.055","FILE":"3418721","MEAN_MOTION_DOT":"0.00212094","ECCENTRICITY":"0.00023400","RCS_SIZE":"LARGE","BSTAR":"0.00065677000000","GP_ID":"202166604","TLE_LINE1":"1 47988U 21024M   22117.91667824  .00212094  27753-4  65677-3 0  9991","EPHEMERIS_TYPE":"0","RA_OF_ASC_NODE":"131.1110","COUNTRY_CODE":"US","INCLINATION":"53.0470","TLE_LINE2":"2 47988  53.0470 131.1110 0002340 281.4748 298.7255 15.91310231 62134","NORAD_CAT_ID":"47988","OBJECT_NAME":"STARLINK-2306","REV_AT_EPOCH":"6213","MEAN_MOTION_DDOT":"0.0000277530000","SITE":"AFETR","APOAPSIS":"300.180","DECAY_DATE":null,"CENTER_NAME":"EARTH","PERIOD":"90.491","TIME_SYSTEM":"UTC","OBJECT_ID":"2021-024M","EPOCH":"2022-04-27T22:00:00.999936","MEAN_ANOMALY":"298.7255","LAUNCH_DATE":"2021-03-24","ELEMENT_SET_NO":"999","MEAN_ELEMENT_THEORY":"SGP4","OBJECT_TYPE":"PAYLOAD","REF_FRAME":"TEME","ARG_OF_PERICENTER":"281.4748","MEAN_MOTION":"15.91310231","CLASSIFICATION_TYPE":"U"},{"OBJECT_NAME":"STARLINK-2305","NORAD_CAT_ID":"47989","APOAPSIS":"548.168","DECAY_DATE":null,"CENTER_NAME":"EARTH","PERIOD":"95.592","MEAN_MOTION_DDOT":"0.0000000000000","REV_AT_EPOCH":"6250","SITE":"AFETR","EPOCH":"2022-04-27T22:00:00.999936","TIME_SYSTEM":"UTC","OBJECT_ID":"2021-024N","ARG_OF_PERICENTER":"73.7724","CLASSIFICATION_TYPE":"U","MEAN_MOTION":"15.06396188","MEAN_ANOMALY":"162.5384","LAUNCH_DATE":"2021-03-24","ELEMENT_SET_NO":"999","MEAN_ELEMENT_THEORY":"SGP4","OBJECT_TYPE":"PAYLOAD","REF_FRAME":"TEME","PERIAPSIS":"546.283","FILE":"3418721","MEAN_MOTION_DOT":"0.00025133","SEMIMAJOR_AXIS":"6925.360","EPHEMERIS_TYPE":"0","TLE_LINE1":"1 47989U 21024N   22117.91667824  .00025133  00000-0  17003-2 0  9999","ECCENTRICITY":"0.00013610","RCS_SIZE":"LARGE","BSTAR":"0.00170030000000","GP_ID":"202166598","INCLINATION":"53.0532","RA_OF_ASC_NODE":"104.3092","COUNTRY_CODE":"US","TLE_LINE2":"2 47989  53.0532 104.3092 0001361  73.7724 162.5384 15.06396188 62506"},{"INCLINATION":"53.0516","COUNTRY_CODE":"US","RA_OF_ASC_NODE":"105.8016","TLE_LINE2":"2 47990  53.0516 105.8016 0001815  45.8669  76.7065 15.06411364 62454","FILE":"3418120","MEAN_MOTION_DOT":"-0.00021724","PERIAPSIS":"545.922","SEMIMAJOR_AXIS":"6925.314","TLE_LINE1":"1 47990U 21024P   22117.58335648 -.00021724  00000-0 -14435-2 0  9990","EPHEMERIS_TYPE":"0","GP_ID":"202128248","RCS_SIZE":"LARGE","ECCENTRICITY":"0.00018150","BSTAR":"-0.00144350000000","EPOCH":"2022-04-27T14:00:01.999872","OBJECT_ID":"2021-024P","TIME_SYSTEM":"UTC","MEAN_MOTION":"15.06411364","CLASSIFICATION_TYPE":"U","ARG_OF_PERICENTER":"45.8669","OBJECT_TYPE":"PAYLOAD","REF_FRAME":"TEME","LAUNCH_DATE":"2021-03-24","MEAN_ANOMALY":"76.7065","ELEMENT_SET_NO":"999","MEAN_ELEMENT_THEORY":"SGP4","OBJECT_NAME":"STARLINK-2307","NORAD_CAT_ID":"47990","PERIOD":"95.591","APOAPSIS":"548.436","DECAY_DATE":null,"CENTER_NAME":"EARTH","SITE":"AFETR","MEAN_MOTION_DDOT":"0.0000000000000","REV_AT_EPOCH":"6245"},{"FILE":"3418497","MEAN_MOTION_DOT":"-0.00031785","PERIAPSIS":"546.119","SEMIMAJOR_AXIS":"6925.298","EPHEMERIS_TYPE":"0","TLE_LINE1":"1 47991U 21024Q   22117.58335648 -.00031785  00000-0 -21235-2 0  9995","GP_ID":"202158572","ECCENTRICITY":"0.00015070","RCS_SIZE":"LARGE","BSTAR":"-0.00212350000000","INCLINATION":"53.0536","COUNTRY_CODE":"US","RA_OF_ASC_NODE":"120.8141","TLE_LINE2":"2 47991  53.0536 120.8141 0001507  54.9463  10.2530 15.06416595  3618","OBJECT_NAME":"STARLINK-2279","NORAD_CAT_ID":"47991","PERIOD":"95.591","APOAPSIS":"548.206","DECAY_DATE":null,"CENTER_NAME":"EARTH","SITE":"AFETR","MEAN_MOTION_DDOT":"0.0000000000000","REV_AT_EPOCH":"361","EPOCH":"2022-04-27T14:00:01.999872","OBJECT_ID":"2021-024Q","TIME_SYSTEM":"UTC","MEAN_MOTION":"15.06416595","CLASSIFICATION_TYPE":"U","ARG_OF_PERICENTER":"54.9463","OBJECT_TYPE":"PAYLOAD","REF_FRAME":"TEME","LAUNCH_DATE":"2021-03-24","ELEMENT_SET_NO":"999","MEAN_ANOMALY":"10.2530","MEAN_ELEMENT_THEORY":"SGP4"},{"COUNTRY_CODE":"US","RA_OF_ASC_NODE":"114.3165","INCLINATION":"53.0520","TLE_LINE2":"2 47992  53.0520 114.3165 0001939  46.9349 314.3922 15.06384599 62378","SEMIMAJOR_AXIS":"6925.396","FILE":"3418736","MEAN_MOTION_DOT":"0.00036551","PERIAPSIS":"545.918","GP_ID":"202166878","RCS_SIZE":"LARGE","ECCENTRICITY":"0.00019390","BSTAR":"0.00246100000000","TLE_LINE1":"1 47992U 21024R   22117.91667824  .00036551  00000-0  24610-2 0  9991","EPHEMERIS_TYPE":"0","OBJECT_ID":"2021-024R","TIME_SYSTEM":"UTC","EPOCH":"2022-04-27T22:00:00.999936","REF_FRAME":"TEME","OBJECT_TYPE":"PAYLOAD","ELEMENT_SET_NO":"999","LAUNCH_DATE":"2021-03-24","MEAN_ANOMALY":"314.3922","MEAN_ELEMENT_THEORY":"SGP4","MEAN_MOTION":"15.06384599","CLASSIFICATION_TYPE":"U","ARG_OF_PERICENTER":"46.9349","NORAD_CAT_ID":"47992","OBJECT_NAME":"STARLINK-2229","SITE":"AFETR","MEAN_MOTION_DDOT":"0.0000000000000","REV_AT_EPOCH":"6237","PERIOD":"95.593","APOAPSIS":"548.604","CENTER_NAME":"EARTH","DECAY_DATE":null},{"NORAD_CAT_ID":"47993","OBJECT_NAME":"STARLINK-2273","SITE":"AFETR","MEAN_MOTION_DDOT":"0.0000000000000","REV_AT_EPOCH":"6176","PERIOD":"95.592","APOAPSIS":"548.495","CENTER_NAME":"EARTH","DECAY_DATE":null,"OBJECT_ID":"2021-024S","TIME_SYSTEM":"UTC","EPOCH":"2022-04-27T14:24:35.462016","OBJECT_TYPE":"PAYLOAD","REF_FRAME":"TEME","MEAN_ELEMENT_THEORY":"SGP4","LAUNCH_DATE":"2021-03-24","ELEMENT_SET_NO":"999","MEAN_ANOMALY":"313.3574","CLASSIFICATION_TYPE":"U","MEAN_MOTION":"15.06396993","ARG_OF_PERICENTER":"46.7568","SEMIMAJOR_AXIS":"6925.358","FILE":"3418736","MEAN_MOTION_DOT":"0.00001345","PERIAPSIS":"545.951","GP_ID":"202166613","ECCENTRICITY":"0.00018370","RCS_SIZE":"LARGE","BSTAR":"0.00010917000000","EPHEMERIS_TYPE":"0","TLE_LINE1":"1 47993U 21024S   22117.60041044  .00001345  00000-0  10917-3 0  9997","COUNTRY_CODE":"US","RA_OF_ASC_NODE":"155.7457","INCLINATION":"53.0539","TLE_LINE2":"2 47993  53.0539 155.7457 0001837  46.7568 313.3574 15.06396993 61765"}];
